{
  "type": "FeatureCollection",
  "name": "NOAA_Hudson_River_GeoSwath_Survey",
  "crs": {
    "type": "name",
    "properties": {
      "name": "urn:ogc:def:crs:OGC:1.3:CRS84"
    }
  },
  "features": [
    {
      "type": "Feature",
      "geometry": {
        "type": "LineString",
        "coordinates": [
          [
            -73.812,
            42.245
          ],
          [
            -73.811999,
            42.245002
          ],
          [
            -73.811999,
            42.245003
          ],
          [
            -73.811998,
            42.245005
          ],
          [
            -73.811998,
            42.245007
          ],
          [
            -73.811997,
            42.245008
          ],
          [
            -73.811996,
            42.24501
          ],
          [
            -73.811996,
            42.245012
          ],
          [
            -73.811995,
            42.245014
          ],
          [
            -73.811994,
            42.245015
          ],
          [
            -73.811994,
            42.245017
          ],
          [
            -73.811993,
            42.245019
          ],
          [
            -73.811993,
            42.24502
          ],
          [
            -73.811992,
            42.245022
          ],
          [
            -73.811991,
            42.245024
          ],
          [
            -73.811991,
            42.245025
          ],
          [
            -73.81199,
            42.245027
          ],
          [
            -73.81199,
            42.245029
          ],
          [
            -73.811989,
            42.245031
          ],
          [
            -73.811988,
            42.245032
          ],
          [
            -73.811988,
            42.245034
          ],
          [
            -73.811987,
            42.245036
          ],
          [
            -73.811986,
            42.245037
          ],
          [
            -73.811986,
            42.245039
          ],
          [
            -73.811985,
            42.245041
          ],
          [
            -73.811985,
            42.245042
          ],
          [
            -73.811984,
            42.245044
          ],
          [
            -73.811983,
            42.245046
          ],
          [
            -73.811983,
            42.245047
          ],
          [
            -73.811982,
            42.245049
          ],
          [
            -73.811982,
            42.245051
          ],
          [
            -73.811981,
            42.245053
          ],
          [
            -73.81198,
            42.245054
          ],
          [
            -73.81198,
            42.245056
          ],
          [
            -73.811979,
            42.245058
          ],
          [
            -73.811979,
            42.245059
          ],
          [
            -73.811978,
            42.245061
          ],
          [
            -73.811977,
            42.245063
          ],
          [
            -73.811977,
            42.245064
          ],
          [
            -73.811976,
            42.245066
          ],
          [
            -73.811975,
            42.245068
          ],
          [
            -73.811975,
            42.24507
          ],
          [
            -73.811974,
            42.245071
          ],
          [
            -73.811974,
            42.245073
          ],
          [
            -73.811973,
            42.245075
          ],
          [
            -73.811972,
            42.245076
          ],
          [
            -73.811972,
            42.245078
          ],
          [
            -73.811971,
            42.24508
          ],
          [
            -73.811971,
            42.245081
          ],
          [
            -73.81197,
            42.245083
          ],
          [
            -73.811969,
            42.245085
          ],
          [
            -73.811969,
            42.245087
          ],
          [
            -73.811968,
            42.245088
          ],
          [
            -73.811967,
            42.24509
          ],
          [
            -73.811967,
            42.245092
          ],
          [
            -73.811966,
            42.245093
          ],
          [
            -73.811966,
            42.245095
          ],
          [
            -73.811965,
            42.245097
          ],
          [
            -73.811964,
            42.245098
          ],
          [
            -73.811964,
            42.2451
          ],
          [
            -73.811963,
            42.245102
          ],
          [
            -73.811963,
            42.245103
          ],
          [
            -73.811962,
            42.245105
          ],
          [
            -73.811961,
            42.245107
          ],
          [
            -73.811961,
            42.245109
          ],
          [
            -73.81196,
            42.24511
          ],
          [
            -73.811959,
            42.245112
          ],
          [
            -73.811959,
            42.245114
          ],
          [
            -73.811958,
            42.245115
          ],
          [
            -73.811958,
            42.245117
          ],
          [
            -73.811957,
            42.245119
          ],
          [
            -73.811956,
            42.24512
          ],
          [
            -73.811956,
            42.245122
          ],
          [
            -73.811955,
            42.245124
          ],
          [
            -73.811955,
            42.245126
          ],
          [
            -73.811954,
            42.245127
          ],
          [
            -73.811953,
            42.245129
          ],
          [
            -73.811953,
            42.245131
          ],
          [
            -73.811952,
            42.245132
          ],
          [
            -73.811951,
            42.245134
          ],
          [
            -73.811951,
            42.245136
          ],
          [
            -73.81195,
            42.245137
          ],
          [
            -73.81195,
            42.245139
          ],
          [
            -73.811949,
            42.245141
          ],
          [
            -73.811948,
            42.245142
          ],
          [
            -73.811948,
            42.245144
          ],
          [
            -73.811947,
            42.245146
          ],
          [
            -73.811947,
            42.245148
          ],
          [
            -73.811946,
            42.245149
          ],
          [
            -73.811945,
            42.245151
          ],
          [
            -73.811945,
            42.245153
          ],
          [
            -73.811944,
            42.245154
          ],
          [
            -73.811944,
            42.245156
          ],
          [
            -73.811943,
            42.245158
          ],
          [
            -73.811942,
            42.245159
          ],
          [
            -73.811942,
            42.245161
          ],
          [
            -73.811941,
            42.245163
          ],
          [
            -73.81194,
            42.245165
          ],
          [
            -73.81194,
            42.245166
          ],
          [
            -73.811939,
            42.245168
          ],
          [
            -73.811939,
            42.24517
          ],
          [
            -73.811938,
            42.245171
          ],
          [
            -73.811937,
            42.245173
          ],
          [
            -73.811937,
            42.245175
          ],
          [
            -73.811936,
            42.245176
          ],
          [
            -73.811936,
            42.245178
          ],
          [
            -73.811935,
            42.24518
          ],
          [
            -73.811934,
            42.245181
          ],
          [
            -73.811934,
            42.245183
          ],
          [
            -73.811933,
            42.245185
          ],
          [
            -73.811932,
            42.245187
          ],
          [
            -73.811932,
            42.245188
          ],
          [
            -73.811931,
            42.24519
          ],
          [
            -73.811931,
            42.245192
          ],
          [
            -73.81193,
            42.245193
          ],
          [
            -73.811929,
            42.245195
          ],
          [
            -73.811929,
            42.245197
          ],
          [
            -73.811928,
            42.245198
          ],
          [
            -73.811928,
            42.2452
          ],
          [
            -73.811927,
            42.245202
          ],
          [
            -73.811926,
            42.245204
          ],
          [
            -73.811926,
            42.245205
          ],
          [
            -73.811925,
            42.245207
          ],
          [
            -73.811924,
            42.245209
          ],
          [
            -73.811924,
            42.24521
          ],
          [
            -73.811923,
            42.245212
          ],
          [
            -73.811923,
            42.245214
          ],
          [
            -73.811922,
            42.245215
          ],
          [
            -73.811921,
            42.245217
          ],
          [
            -73.811921,
            42.245219
          ],
          [
            -73.81192,
            42.245221
          ],
          [
            -73.81192,
            42.245222
          ],
          [
            -73.811919,
            42.245224
          ],
          [
            -73.811918,
            42.245226
          ],
          [
            -73.811918,
            42.245227
          ],
          [
            -73.811917,
            42.245229
          ],
          [
            -73.811916,
            42.245231
          ],
          [
            -73.811916,
            42.245232
          ],
          [
            -73.811915,
            42.245234
          ],
          [
            -73.811915,
            42.245236
          ],
          [
            -73.811914,
            42.245237
          ],
          [
            -73.811913,
            42.245239
          ],
          [
            -73.811913,
            42.245241
          ],
          [
            -73.811912,
            42.245243
          ],
          [
            -73.811912,
            42.245244
          ],
          [
            -73.811911,
            42.245246
          ],
          [
            -73.81191,
            42.245248
          ],
          [
            -73.81191,
            42.245249
          ],
          [
            -73.811909,
            42.245251
          ],
          [
            -73.811909,
            42.245253
          ],
          [
            -73.811908,
            42.245254
          ],
          [
            -73.811907,
            42.245256
          ],
          [
            -73.811907,
            42.245258
          ],
          [
            -73.811906,
            42.24526
          ],
          [
            -73.811905,
            42.245261
          ],
          [
            -73.811905,
            42.245263
          ],
          [
            -73.811904,
            42.245265
          ],
          [
            -73.811904,
            42.245266
          ],
          [
            -73.811903,
            42.245268
          ],
          [
            -73.811902,
            42.24527
          ],
          [
            -73.811902,
            42.245271
          ],
          [
            -73.811901,
            42.245273
          ],
          [
            -73.811901,
            42.245275
          ],
          [
            -73.8119,
            42.245276
          ],
          [
            -73.811899,
            42.245278
          ],
          [
            -73.811899,
            42.24528
          ],
          [
            -73.811898,
            42.245282
          ],
          [
            -73.811897,
            42.245283
          ],
          [
            -73.811897,
            42.245285
          ],
          [
            -73.811896,
            42.245287
          ],
          [
            -73.811896,
            42.245288
          ],
          [
            -73.811895,
            42.24529
          ],
          [
            -73.811894,
            42.245292
          ],
          [
            -73.811894,
            42.245293
          ],
          [
            -73.811893,
            42.245295
          ],
          [
            -73.811893,
            42.245297
          ],
          [
            -73.811892,
            42.245299
          ],
          [
            -73.811891,
            42.2453
          ],
          [
            -73.811891,
            42.245302
          ],
          [
            -73.81189,
            42.245304
          ],
          [
            -73.811889,
            42.245305
          ],
          [
            -73.811889,
            42.245307
          ],
          [
            -73.811888,
            42.245309
          ],
          [
            -73.811888,
            42.24531
          ],
          [
            -73.811887,
            42.245312
          ],
          [
            -73.811886,
            42.245314
          ],
          [
            -73.811886,
            42.245316
          ],
          [
            -73.811885,
            42.245317
          ],
          [
            -73.811885,
            42.245319
          ],
          [
            -73.811884,
            42.245321
          ],
          [
            -73.811883,
            42.245322
          ],
          [
            -73.811883,
            42.245324
          ],
          [
            -73.811882,
            42.245326
          ],
          [
            -73.811882,
            42.245327
          ],
          [
            -73.811881,
            42.245329
          ],
          [
            -73.81188,
            42.245331
          ],
          [
            -73.81188,
            42.245332
          ],
          [
            -73.811879,
            42.245334
          ],
          [
            -73.811878,
            42.245336
          ],
          [
            -73.811878,
            42.245338
          ],
          [
            -73.811877,
            42.245339
          ],
          [
            -73.811877,
            42.245341
          ],
          [
            -73.811876,
            42.245343
          ],
          [
            -73.811875,
            42.245344
          ],
          [
            -73.811875,
            42.245346
          ],
          [
            -73.811874,
            42.245348
          ],
          [
            -73.811874,
            42.245349
          ],
          [
            -73.811873,
            42.245351
          ],
          [
            -73.811872,
            42.245353
          ],
          [
            -73.811872,
            42.245355
          ],
          [
            -73.811871,
            42.245356
          ],
          [
            -73.81187,
            42.245358
          ],
          [
            -73.81187,
            42.24536
          ],
          [
            -73.811869,
            42.245361
          ],
          [
            -73.811869,
            42.245363
          ],
          [
            -73.811868,
            42.245365
          ],
          [
            -73.811867,
            42.245366
          ],
          [
            -73.811867,
            42.245368
          ],
          [
            -73.811866,
            42.24537
          ],
          [
            -73.811866,
            42.245371
          ],
          [
            -73.811865,
            42.245373
          ],
          [
            -73.811864,
            42.245375
          ],
          [
            -73.811864,
            42.245377
          ],
          [
            -73.811863,
            42.245378
          ],
          [
            -73.811862,
            42.24538
          ],
          [
            -73.811862,
            42.245382
          ],
          [
            -73.811861,
            42.245383
          ],
          [
            -73.811861,
            42.245385
          ],
          [
            -73.81186,
            42.245387
          ],
          [
            -73.811859,
            42.245388
          ],
          [
            -73.811859,
            42.24539
          ],
          [
            -73.811858,
            42.245392
          ],
          [
            -73.811858,
            42.245394
          ],
          [
            -73.811857,
            42.245395
          ],
          [
            -73.811856,
            42.245397
          ],
          [
            -73.811856,
            42.245399
          ],
          [
            -73.811855,
            42.2454
          ],
          [
            -73.811854,
            42.245402
          ],
          [
            -73.811854,
            42.245404
          ],
          [
            -73.811853,
            42.245405
          ],
          [
            -73.811853,
            42.245407
          ],
          [
            -73.811852,
            42.245409
          ],
          [
            -73.811851,
            42.24541
          ],
          [
            -73.811851,
            42.245412
          ],
          [
            -73.81185,
            42.245414
          ],
          [
            -73.81185,
            42.245416
          ],
          [
            -73.811849,
            42.245417
          ],
          [
            -73.811848,
            42.245419
          ],
          [
            -73.811848,
            42.245421
          ],
          [
            -73.811847,
            42.245422
          ],
          [
            -73.811847,
            42.245424
          ],
          [
            -73.811846,
            42.245426
          ],
          [
            -73.811845,
            42.245427
          ],
          [
            -73.811845,
            42.245429
          ],
          [
            -73.811844,
            42.245431
          ],
          [
            -73.811843,
            42.245433
          ],
          [
            -73.811843,
            42.245434
          ],
          [
            -73.811842,
            42.245436
          ],
          [
            -73.811842,
            42.245438
          ],
          [
            -73.811841,
            42.245439
          ],
          [
            -73.81184,
            42.245441
          ],
          [
            -73.81184,
            42.245443
          ],
          [
            -73.811839,
            42.245444
          ],
          [
            -73.811839,
            42.245446
          ],
          [
            -73.811838,
            42.245448
          ],
          [
            -73.811837,
            42.24545
          ],
          [
            -73.811837,
            42.245451
          ],
          [
            -73.811836,
            42.245453
          ],
          [
            -73.811835,
            42.245455
          ],
          [
            -73.811835,
            42.245456
          ],
          [
            -73.811834,
            42.245458
          ],
          [
            -73.811834,
            42.24546
          ],
          [
            -73.811833,
            42.245461
          ],
          [
            -73.811832,
            42.245463
          ],
          [
            -73.811832,
            42.245465
          ],
          [
            -73.811831,
            42.245466
          ],
          [
            -73.811831,
            42.245468
          ],
          [
            -73.81183,
            42.24547
          ],
          [
            -73.811829,
            42.245472
          ],
          [
            -73.811829,
            42.245473
          ],
          [
            -73.811828,
            42.245475
          ],
          [
            -73.811827,
            42.245477
          ],
          [
            -73.811827,
            42.245478
          ],
          [
            -73.811826,
            42.24548
          ],
          [
            -73.811826,
            42.245482
          ],
          [
            -73.811825,
            42.245483
          ],
          [
            -73.811824,
            42.245485
          ],
          [
            -73.811824,
            42.245487
          ],
          [
            -73.811823,
            42.245489
          ],
          [
            -73.811823,
            42.24549
          ],
          [
            -73.811822,
            42.245492
          ],
          [
            -73.811821,
            42.245494
          ],
          [
            -73.811821,
            42.245495
          ],
          [
            -73.81182,
            42.245497
          ],
          [
            -73.811819,
            42.245499
          ],
          [
            -73.811819,
            42.2455
          ],
          [
            -73.811818,
            42.245502
          ],
          [
            -73.811818,
            42.245504
          ],
          [
            -73.811817,
            42.245505
          ],
          [
            -73.811816,
            42.245507
          ]
        ]
      },
      "properties": {
        "name": "NOAA_Hudson_River_Line01_Shipwreck_255kHz.xtf",
        "target_class": "shipwreck",
        "pings": 300,
        "sonar": "Kongsberg GeoSwath Plus 255 kHz",
        "survey": "NOAA InPort Item 47922"
      }
    },
    {
      "type": "Feature",
      "geometry": {
        "type": "Point",
        "coordinates": [
          -73.811611,
          42.245246
        ]
      },
      "properties": {
        "name": "Acoustic Target: SHIPWRECK",
        "class": "shipwreck",
        "ping": 145,
        "shadow_length_m": 9.8,
        "estimated_height_m": 3.45,
        "altitude_m": 12.5,
        "slant_range_m": 45.2
      }
    },
    {
      "type": "Feature",
      "geometry": {
        "type": "LineString",
        "coordinates": [
          [
            -73.8105,
            42.248
          ],
          [
            -73.810499,
            42.248002
          ],
          [
            -73.810499,
            42.248003
          ],
          [
            -73.810498,
            42.248005
          ],
          [
            -73.810497,
            42.248007
          ],
          [
            -73.810496,
            42.248008
          ],
          [
            -73.810496,
            42.24801
          ],
          [
            -73.810495,
            42.248012
          ],
          [
            -73.810494,
            42.248013
          ],
          [
            -73.810493,
            42.248015
          ],
          [
            -73.810493,
            42.248017
          ],
          [
            -73.810492,
            42.248018
          ],
          [
            -73.810491,
            42.24802
          ],
          [
            -73.81049,
            42.248022
          ],
          [
            -73.81049,
            42.248023
          ],
          [
            -73.810489,
            42.248025
          ],
          [
            -73.810488,
            42.248027
          ],
          [
            -73.810488,
            42.248028
          ],
          [
            -73.810487,
            42.24803
          ],
          [
            -73.810486,
            42.248032
          ],
          [
            -73.810485,
            42.248033
          ],
          [
            -73.810485,
            42.248035
          ],
          [
            -73.810484,
            42.248037
          ],
          [
            -73.810483,
            42.248038
          ],
          [
            -73.810482,
            42.24804
          ],
          [
            -73.810482,
            42.248042
          ],
          [
            -73.810481,
            42.248043
          ],
          [
            -73.81048,
            42.248045
          ],
          [
            -73.810479,
            42.248047
          ],
          [
            -73.810479,
            42.248048
          ],
          [
            -73.810478,
            42.24805
          ],
          [
            -73.810477,
            42.248052
          ],
          [
            -73.810477,
            42.248053
          ],
          [
            -73.810476,
            42.248055
          ],
          [
            -73.810475,
            42.248057
          ],
          [
            -73.810474,
            42.248058
          ],
          [
            -73.810474,
            42.24806
          ],
          [
            -73.810473,
            42.248062
          ],
          [
            -73.810472,
            42.248063
          ],
          [
            -73.810471,
            42.248065
          ],
          [
            -73.810471,
            42.248067
          ],
          [
            -73.81047,
            42.248068
          ],
          [
            -73.810469,
            42.24807
          ],
          [
            -73.810468,
            42.248072
          ],
          [
            -73.810468,
            42.248073
          ],
          [
            -73.810467,
            42.248075
          ],
          [
            -73.810466,
            42.248077
          ],
          [
            -73.810466,
            42.248078
          ],
          [
            -73.810465,
            42.24808
          ],
          [
            -73.810464,
            42.248082
          ],
          [
            -73.810463,
            42.248084
          ],
          [
            -73.810463,
            42.248085
          ],
          [
            -73.810462,
            42.248087
          ],
          [
            -73.810461,
            42.248089
          ],
          [
            -73.81046,
            42.24809
          ],
          [
            -73.81046,
            42.248092
          ],
          [
            -73.810459,
            42.248094
          ],
          [
            -73.810458,
            42.248095
          ],
          [
            -73.810457,
            42.248097
          ],
          [
            -73.810457,
            42.248099
          ],
          [
            -73.810456,
            42.2481
          ],
          [
            -73.810455,
            42.248102
          ],
          [
            -73.810455,
            42.248104
          ],
          [
            -73.810454,
            42.248105
          ],
          [
            -73.810453,
            42.248107
          ],
          [
            -73.810452,
            42.248109
          ],
          [
            -73.810452,
            42.24811
          ],
          [
            -73.810451,
            42.248112
          ],
          [
            -73.81045,
            42.248114
          ],
          [
            -73.810449,
            42.248115
          ],
          [
            -73.810449,
            42.248117
          ],
          [
            -73.810448,
            42.248119
          ],
          [
            -73.810447,
            42.24812
          ],
          [
            -73.810446,
            42.248122
          ],
          [
            -73.810446,
            42.248124
          ],
          [
            -73.810445,
            42.248125
          ],
          [
            -73.810444,
            42.248127
          ],
          [
            -73.810444,
            42.248129
          ],
          [
            -73.810443,
            42.24813
          ],
          [
            -73.810442,
            42.248132
          ],
          [
            -73.810441,
            42.248134
          ],
          [
            -73.810441,
            42.248135
          ],
          [
            -73.81044,
            42.248137
          ],
          [
            -73.810439,
            42.248139
          ],
          [
            -73.810438,
            42.24814
          ],
          [
            -73.810438,
            42.248142
          ],
          [
            -73.810437,
            42.248144
          ],
          [
            -73.810436,
            42.248145
          ],
          [
            -73.810435,
            42.248147
          ],
          [
            -73.810435,
            42.248149
          ],
          [
            -73.810434,
            42.24815
          ],
          [
            -73.810433,
            42.248152
          ],
          [
            -73.810433,
            42.248154
          ],
          [
            -73.810432,
            42.248155
          ],
          [
            -73.810431,
            42.248157
          ],
          [
            -73.81043,
            42.248159
          ],
          [
            -73.81043,
            42.24816
          ],
          [
            -73.810429,
            42.248162
          ],
          [
            -73.810428,
            42.248164
          ],
          [
            -73.810427,
            42.248165
          ],
          [
            -73.810427,
            42.248167
          ],
          [
            -73.810426,
            42.248169
          ],
          [
            -73.810425,
            42.24817
          ],
          [
            -73.810424,
            42.248172
          ],
          [
            -73.810424,
            42.248174
          ],
          [
            -73.810423,
            42.248175
          ],
          [
            -73.810422,
            42.248177
          ],
          [
            -73.810422,
            42.248179
          ],
          [
            -73.810421,
            42.24818
          ],
          [
            -73.81042,
            42.248182
          ],
          [
            -73.810419,
            42.248184
          ],
          [
            -73.810419,
            42.248185
          ],
          [
            -73.810418,
            42.248187
          ],
          [
            -73.810417,
            42.248189
          ],
          [
            -73.810416,
            42.24819
          ],
          [
            -73.810416,
            42.248192
          ],
          [
            -73.810415,
            42.248194
          ],
          [
            -73.810414,
            42.248195
          ],
          [
            -73.810413,
            42.248197
          ],
          [
            -73.810413,
            42.248199
          ],
          [
            -73.810412,
            42.2482
          ],
          [
            -73.810411,
            42.248202
          ],
          [
            -73.810411,
            42.248204
          ],
          [
            -73.81041,
            42.248205
          ],
          [
            -73.810409,
            42.248207
          ],
          [
            -73.810408,
            42.248209
          ],
          [
            -73.810408,
            42.24821
          ],
          [
            -73.810407,
            42.248212
          ],
          [
            -73.810406,
            42.248214
          ],
          [
            -73.810405,
            42.248215
          ],
          [
            -73.810405,
            42.248217
          ],
          [
            -73.810404,
            42.248219
          ],
          [
            -73.810403,
            42.24822
          ],
          [
            -73.810402,
            42.248222
          ],
          [
            -73.810402,
            42.248224
          ],
          [
            -73.810401,
            42.248225
          ],
          [
            -73.8104,
            42.248227
          ],
          [
            -73.8104,
            42.248229
          ],
          [
            -73.810399,
            42.24823
          ],
          [
            -73.810398,
            42.248232
          ],
          [
            -73.810397,
            42.248234
          ],
          [
            -73.810397,
            42.248235
          ],
          [
            -73.810396,
            42.248237
          ],
          [
            -73.810395,
            42.248239
          ],
          [
            -73.810394,
            42.248241
          ],
          [
            -73.810394,
            42.248242
          ],
          [
            -73.810393,
            42.248244
          ],
          [
            -73.810392,
            42.248246
          ],
          [
            -73.810392,
            42.248247
          ],
          [
            -73.810391,
            42.248249
          ],
          [
            -73.81039,
            42.248251
          ],
          [
            -73.810389,
            42.248252
          ],
          [
            -73.810389,
            42.248254
          ],
          [
            -73.810388,
            42.248256
          ],
          [
            -73.810387,
            42.248257
          ],
          [
            -73.810386,
            42.248259
          ],
          [
            -73.810386,
            42.248261
          ],
          [
            -73.810385,
            42.248262
          ],
          [
            -73.810384,
            42.248264
          ],
          [
            -73.810383,
            42.248266
          ],
          [
            -73.810383,
            42.248267
          ],
          [
            -73.810382,
            42.248269
          ],
          [
            -73.810381,
            42.248271
          ],
          [
            -73.810381,
            42.248272
          ],
          [
            -73.81038,
            42.248274
          ],
          [
            -73.810379,
            42.248276
          ],
          [
            -73.810378,
            42.248277
          ],
          [
            -73.810378,
            42.248279
          ],
          [
            -73.810377,
            42.248281
          ],
          [
            -73.810376,
            42.248282
          ],
          [
            -73.810375,
            42.248284
          ],
          [
            -73.810375,
            42.248286
          ],
          [
            -73.810374,
            42.248287
          ],
          [
            -73.810373,
            42.248289
          ],
          [
            -73.810372,
            42.248291
          ],
          [
            -73.810372,
            42.248292
          ],
          [
            -73.810371,
            42.248294
          ],
          [
            -73.81037,
            42.248296
          ],
          [
            -73.81037,
            42.248297
          ],
          [
            -73.810369,
            42.248299
          ],
          [
            -73.810368,
            42.248301
          ],
          [
            -73.810367,
            42.248302
          ],
          [
            -73.810367,
            42.248304
          ],
          [
            -73.810366,
            42.248306
          ],
          [
            -73.810365,
            42.248307
          ],
          [
            -73.810364,
            42.248309
          ],
          [
            -73.810364,
            42.248311
          ],
          [
            -73.810363,
            42.248312
          ],
          [
            -73.810362,
            42.248314
          ],
          [
            -73.810361,
            42.248316
          ],
          [
            -73.810361,
            42.248317
          ],
          [
            -73.81036,
            42.248319
          ],
          [
            -73.810359,
            42.248321
          ],
          [
            -73.810359,
            42.248322
          ],
          [
            -73.810358,
            42.248324
          ],
          [
            -73.810357,
            42.248326
          ],
          [
            -73.810356,
            42.248327
          ],
          [
            -73.810356,
            42.248329
          ],
          [
            -73.810355,
            42.248331
          ],
          [
            -73.810354,
            42.248332
          ],
          [
            -73.810353,
            42.248334
          ],
          [
            -73.810353,
            42.248336
          ],
          [
            -73.810352,
            42.248337
          ],
          [
            -73.810351,
            42.248339
          ],
          [
            -73.81035,
            42.248341
          ],
          [
            -73.81035,
            42.248342
          ],
          [
            -73.810349,
            42.248344
          ],
          [
            -73.810348,
            42.248346
          ],
          [
            -73.810348,
            42.248347
          ],
          [
            -73.810347,
            42.248349
          ],
          [
            -73.810346,
            42.248351
          ],
          [
            -73.810345,
            42.248352
          ],
          [
            -73.810345,
            42.248354
          ],
          [
            -73.810344,
            42.248356
          ],
          [
            -73.810343,
            42.248357
          ],
          [
            -73.810342,
            42.248359
          ],
          [
            -73.810342,
            42.248361
          ],
          [
            -73.810341,
            42.248362
          ],
          [
            -73.81034,
            42.248364
          ],
          [
            -73.810339,
            42.248366
          ],
          [
            -73.810339,
            42.248367
          ],
          [
            -73.810338,
            42.248369
          ],
          [
            -73.810337,
            42.248371
          ],
          [
            -73.810337,
            42.248372
          ],
          [
            -73.810336,
            42.248374
          ],
          [
            -73.810335,
            42.248376
          ],
          [
            -73.810334,
            42.248377
          ],
          [
            -73.810334,
            42.248379
          ],
          [
            -73.810333,
            42.248381
          ],
          [
            -73.810332,
            42.248382
          ],
          [
            -73.810331,
            42.248384
          ],
          [
            -73.810331,
            42.248386
          ],
          [
            -73.81033,
            42.248387
          ],
          [
            -73.810329,
            42.248389
          ],
          [
            -73.810328,
            42.248391
          ],
          [
            -73.810328,
            42.248392
          ],
          [
            -73.810327,
            42.248394
          ],
          [
            -73.810326,
            42.248396
          ],
          [
            -73.810326,
            42.248397
          ],
          [
            -73.810325,
            42.248399
          ],
          [
            -73.810324,
            42.248401
          ],
          [
            -73.810323,
            42.248403
          ],
          [
            -73.810323,
            42.248404
          ],
          [
            -73.810322,
            42.248406
          ],
          [
            -73.810321,
            42.248408
          ],
          [
            -73.81032,
            42.248409
          ],
          [
            -73.81032,
            42.248411
          ],
          [
            -73.810319,
            42.248413
          ],
          [
            -73.810318,
            42.248414
          ],
          [
            -73.810317,
            42.248416
          ]
        ]
      },
      "properties": {
        "name": "NOAA_Hudson_River_Line02_SubmergedPipe_255kHz.xtf",
        "target_class": "pipe",
        "pings": 250,
        "sonar": "Kongsberg GeoSwath Plus 255 kHz",
        "survey": "NOAA InPort Item 47922"
      }
    },
    {
      "type": "Feature",
      "geometry": {
        "type": "Point",
        "coordinates": [
          -73.810394,
          42.248242
        ]
      },
      "properties": {
        "name": "Acoustic Target: PIPE",
        "class": "pipe",
        "ping": 145,
        "shadow_length_m": 2.2,
        "estimated_height_m": 1.12,
        "altitude_m": 12.0,
        "slant_range_m": 24.5
      }
    },
    {
      "type": "Feature",
      "geometry": {
        "type": "LineString",
        "coordinates": [
          [
            -73.809,
            42.251
          ],
          [
            -73.809,
            42.251002
          ],
          [
            -73.808999,
            42.251003
          ],
          [
            -73.808999,
            42.251005
          ],
          [
            -73.808998,
            42.251007
          ],
          [
            -73.808998,
            42.251009
          ],
          [
            -73.808997,
            42.25101
          ],
          [
            -73.808997,
            42.251012
          ],
          [
            -73.808996,
            42.251014
          ],
          [
            -73.808996,
            42.251015
          ],
          [
            -73.808995,
            42.251017
          ],
          [
            -73.808995,
            42.251019
          ],
          [
            -73.808994,
            42.251021
          ],
          [
            -73.808994,
            42.251022
          ],
          [
            -73.808993,
            42.251024
          ],
          [
            -73.808993,
            42.251026
          ],
          [
            -73.808992,
            42.251027
          ],
          [
            -73.808992,
            42.251029
          ],
          [
            -73.808991,
            42.251031
          ],
          [
            -73.808991,
            42.251033
          ],
          [
            -73.80899,
            42.251034
          ],
          [
            -73.80899,
            42.251036
          ],
          [
            -73.808989,
            42.251038
          ],
          [
            -73.808989,
            42.25104
          ],
          [
            -73.808988,
            42.251041
          ],
          [
            -73.808988,
            42.251043
          ],
          [
            -73.808987,
            42.251045
          ],
          [
            -73.808987,
            42.251046
          ],
          [
            -73.808986,
            42.251048
          ],
          [
            -73.808986,
            42.25105
          ],
          [
            -73.808985,
            42.251052
          ],
          [
            -73.808985,
            42.251053
          ],
          [
            -73.808984,
            42.251055
          ],
          [
            -73.808984,
            42.251057
          ],
          [
            -73.808983,
            42.251058
          ],
          [
            -73.808983,
            42.25106
          ],
          [
            -73.808982,
            42.251062
          ],
          [
            -73.808982,
            42.251064
          ],
          [
            -73.808981,
            42.251065
          ],
          [
            -73.808981,
            42.251067
          ],
          [
            -73.80898,
            42.251069
          ],
          [
            -73.80898,
            42.25107
          ],
          [
            -73.808979,
            42.251072
          ],
          [
            -73.808979,
            42.251074
          ],
          [
            -73.808978,
            42.251076
          ],
          [
            -73.808978,
            42.251077
          ],
          [
            -73.808977,
            42.251079
          ],
          [
            -73.808977,
            42.251081
          ],
          [
            -73.808976,
            42.251082
          ],
          [
            -73.808976,
            42.251084
          ],
          [
            -73.808975,
            42.251086
          ],
          [
            -73.808975,
            42.251088
          ],
          [
            -73.808974,
            42.251089
          ],
          [
            -73.808974,
            42.251091
          ],
          [
            -73.808973,
            42.251093
          ],
          [
            -73.808973,
            42.251094
          ],
          [
            -73.808972,
            42.251096
          ],
          [
            -73.808972,
            42.251098
          ],
          [
            -73.808971,
            42.2511
          ],
          [
            -73.808971,
            42.251101
          ],
          [
            -73.80897,
            42.251103
          ],
          [
            -73.80897,
            42.251105
          ],
          [
            -73.808969,
            42.251106
          ],
          [
            -73.808969,
            42.251108
          ],
          [
            -73.808968,
            42.25111
          ],
          [
            -73.808968,
            42.251112
          ],
          [
            -73.808967,
            42.251113
          ],
          [
            -73.808967,
            42.251115
          ],
          [
            -73.808966,
            42.251117
          ],
          [
            -73.808966,
            42.251119
          ],
          [
            -73.808965,
            42.25112
          ],
          [
            -73.808965,
            42.251122
          ],
          [
            -73.808964,
            42.251124
          ],
          [
            -73.808964,
            42.251125
          ],
          [
            -73.808963,
            42.251127
          ],
          [
            -73.808963,
            42.251129
          ],
          [
            -73.808963,
            42.251131
          ],
          [
            -73.808962,
            42.251132
          ],
          [
            -73.808962,
            42.251134
          ],
          [
            -73.808961,
            42.251136
          ],
          [
            -73.808961,
            42.251137
          ],
          [
            -73.80896,
            42.251139
          ],
          [
            -73.80896,
            42.251141
          ],
          [
            -73.808959,
            42.251143
          ],
          [
            -73.808959,
            42.251144
          ],
          [
            -73.808958,
            42.251146
          ],
          [
            -73.808958,
            42.251148
          ],
          [
            -73.808957,
            42.251149
          ],
          [
            -73.808957,
            42.251151
          ],
          [
            -73.808956,
            42.251153
          ],
          [
            -73.808956,
            42.251155
          ],
          [
            -73.808955,
            42.251156
          ],
          [
            -73.808955,
            42.251158
          ],
          [
            -73.808954,
            42.25116
          ],
          [
            -73.808954,
            42.251161
          ],
          [
            -73.808953,
            42.251163
          ],
          [
            -73.808953,
            42.251165
          ],
          [
            -73.808952,
            42.251167
          ],
          [
            -73.808952,
            42.251168
          ],
          [
            -73.808951,
            42.25117
          ],
          [
            -73.808951,
            42.251172
          ],
          [
            -73.80895,
            42.251173
          ],
          [
            -73.80895,
            42.251175
          ],
          [
            -73.808949,
            42.251177
          ],
          [
            -73.808949,
            42.251179
          ],
          [
            -73.808948,
            42.25118
          ],
          [
            -73.808948,
            42.251182
          ],
          [
            -73.808947,
            42.251184
          ],
          [
            -73.808947,
            42.251186
          ],
          [
            -73.808946,
            42.251187
          ],
          [
            -73.808946,
            42.251189
          ],
          [
            -73.808945,
            42.251191
          ],
          [
            -73.808945,
            42.251192
          ],
          [
            -73.808944,
            42.251194
          ],
          [
            -73.808944,
            42.251196
          ],
          [
            -73.808943,
            42.251198
          ],
          [
            -73.808943,
            42.251199
          ],
          [
            -73.808942,
            42.251201
          ],
          [
            -73.808942,
            42.251203
          ],
          [
            -73.808941,
            42.251204
          ],
          [
            -73.808941,
            42.251206
          ],
          [
            -73.80894,
            42.251208
          ],
          [
            -73.80894,
            42.25121
          ],
          [
            -73.808939,
            42.251211
          ],
          [
            -73.808939,
            42.251213
          ],
          [
            -73.808938,
            42.251215
          ],
          [
            -73.808938,
            42.251216
          ],
          [
            -73.808937,
            42.251218
          ],
          [
            -73.808937,
            42.25122
          ],
          [
            -73.808936,
            42.251222
          ],
          [
            -73.808936,
            42.251223
          ],
          [
            -73.808935,
            42.251225
          ],
          [
            -73.808935,
            42.251227
          ],
          [
            -73.808934,
            42.251228
          ],
          [
            -73.808934,
            42.25123
          ],
          [
            -73.808933,
            42.251232
          ],
          [
            -73.808933,
            42.251234
          ],
          [
            -73.808932,
            42.251235
          ],
          [
            -73.808932,
            42.251237
          ],
          [
            -73.808931,
            42.251239
          ],
          [
            -73.808931,
            42.25124
          ],
          [
            -73.80893,
            42.251242
          ],
          [
            -73.80893,
            42.251244
          ],
          [
            -73.808929,
            42.251246
          ],
          [
            -73.808929,
            42.251247
          ],
          [
            -73.808928,
            42.251249
          ],
          [
            -73.808928,
            42.251251
          ],
          [
            -73.808927,
            42.251253
          ],
          [
            -73.808927,
            42.251254
          ],
          [
            -73.808927,
            42.251256
          ],
          [
            -73.808926,
            42.251258
          ],
          [
            -73.808926,
            42.251259
          ],
          [
            -73.808925,
            42.251261
          ],
          [
            -73.808925,
            42.251263
          ],
          [
            -73.808924,
            42.251265
          ],
          [
            -73.808924,
            42.251266
          ],
          [
            -73.808923,
            42.251268
          ],
          [
            -73.808923,
            42.25127
          ],
          [
            -73.808922,
            42.251271
          ],
          [
            -73.808922,
            42.251273
          ],
          [
            -73.808921,
            42.251275
          ],
          [
            -73.808921,
            42.251277
          ],
          [
            -73.80892,
            42.251278
          ],
          [
            -73.80892,
            42.25128
          ],
          [
            -73.808919,
            42.251282
          ],
          [
            -73.808919,
            42.251283
          ],
          [
            -73.808918,
            42.251285
          ],
          [
            -73.808918,
            42.251287
          ],
          [
            -73.808917,
            42.251289
          ],
          [
            -73.808917,
            42.25129
          ],
          [
            -73.808916,
            42.251292
          ],
          [
            -73.808916,
            42.251294
          ],
          [
            -73.808915,
            42.251295
          ],
          [
            -73.808915,
            42.251297
          ],
          [
            -73.808914,
            42.251299
          ],
          [
            -73.808914,
            42.251301
          ],
          [
            -73.808913,
            42.251302
          ],
          [
            -73.808913,
            42.251304
          ],
          [
            -73.808912,
            42.251306
          ],
          [
            -73.808912,
            42.251307
          ],
          [
            -73.808911,
            42.251309
          ],
          [
            -73.808911,
            42.251311
          ],
          [
            -73.80891,
            42.251313
          ],
          [
            -73.80891,
            42.251314
          ],
          [
            -73.808909,
            42.251316
          ],
          [
            -73.808909,
            42.251318
          ],
          [
            -73.808908,
            42.251319
          ],
          [
            -73.808908,
            42.251321
          ],
          [
            -73.808907,
            42.251323
          ],
          [
            -73.808907,
            42.251325
          ],
          [
            -73.808906,
            42.251326
          ],
          [
            -73.808906,
            42.251328
          ],
          [
            -73.808905,
            42.25133
          ],
          [
            -73.808905,
            42.251332
          ],
          [
            -73.808904,
            42.251333
          ],
          [
            -73.808904,
            42.251335
          ],
          [
            -73.808903,
            42.251337
          ],
          [
            -73.808903,
            42.251338
          ],
          [
            -73.808902,
            42.25134
          ],
          [
            -73.808902,
            42.251342
          ],
          [
            -73.808901,
            42.251344
          ],
          [
            -73.808901,
            42.251345
          ],
          [
            -73.8089,
            42.251347
          ],
          [
            -73.8089,
            42.251349
          ],
          [
            -73.808899,
            42.25135
          ],
          [
            -73.808899,
            42.251352
          ],
          [
            -73.808898,
            42.251354
          ],
          [
            -73.808898,
            42.251356
          ],
          [
            -73.808897,
            42.251357
          ],
          [
            -73.808897,
            42.251359
          ],
          [
            -73.808896,
            42.251361
          ],
          [
            -73.808896,
            42.251362
          ],
          [
            -73.808895,
            42.251364
          ],
          [
            -73.808895,
            42.251366
          ],
          [
            -73.808894,
            42.251368
          ],
          [
            -73.808894,
            42.251369
          ],
          [
            -73.808893,
            42.251371
          ],
          [
            -73.808893,
            42.251373
          ],
          [
            -73.808892,
            42.251374
          ],
          [
            -73.808892,
            42.251376
          ],
          [
            -73.808891,
            42.251378
          ],
          [
            -73.808891,
            42.25138
          ],
          [
            -73.80889,
            42.251381
          ],
          [
            -73.80889,
            42.251383
          ],
          [
            -73.80889,
            42.251385
          ],
          [
            -73.808889,
            42.251386
          ],
          [
            -73.808889,
            42.251388
          ],
          [
            -73.808888,
            42.25139
          ],
          [
            -73.808888,
            42.251392
          ],
          [
            -73.808887,
            42.251393
          ],
          [
            -73.808887,
            42.251395
          ],
          [
            -73.808886,
            42.251397
          ],
          [
            -73.808886,
            42.251399
          ],
          [
            -73.808885,
            42.2514
          ],
          [
            -73.808885,
            42.251402
          ],
          [
            -73.808884,
            42.251404
          ],
          [
            -73.808884,
            42.251405
          ],
          [
            -73.808883,
            42.251407
          ],
          [
            -73.808883,
            42.251409
          ],
          [
            -73.808882,
            42.251411
          ],
          [
            -73.808882,
            42.251412
          ],
          [
            -73.808881,
            42.251414
          ],
          [
            -73.808881,
            42.251416
          ],
          [
            -73.80888,
            42.251417
          ],
          [
            -73.80888,
            42.251419
          ],
          [
            -73.808879,
            42.251421
          ],
          [
            -73.808879,
            42.251423
          ],
          [
            -73.808878,
            42.251424
          ],
          [
            -73.808878,
            42.251426
          ],
          [
            -73.808877,
            42.251428
          ]
        ]
      },
      "properties": {
        "name": "NOAA_Hudson_River_Line03_DebrisCylinder_255kHz.xtf",
        "target_class": "cylinder",
        "pings": 250,
        "sonar": "Kongsberg GeoSwath Plus 255 kHz",
        "survey": "NOAA InPort Item 47922"
      }
    },
    {
      "type": "Feature",
      "geometry": {
        "type": "Point",
        "coordinates": [
          -73.808728,
          42.251249
        ]
      },
      "properties": {
        "name": "Acoustic Target: CYLINDER",
        "class": "cylinder",
        "ping": 145,
        "shadow_length_m": 4.8,
        "estimated_height_m": 1.93,
        "altitude_m": 13.0,
        "slant_range_m": 31.0
      }
    },
    {
      "type": "Feature",
      "geometry": {
        "type": "LineString",
        "coordinates": [
          [
            -73.8075,
            42.254
          ],
          [
            -73.807499,
            42.254002
          ],
          [
            -73.807499,
            42.254003
          ],
          [
            -73.807498,
            42.254005
          ],
          [
            -73.807498,
            42.254007
          ],
          [
            -73.807497,
            42.254008
          ],
          [
            -73.807496,
            42.25401
          ],
          [
            -73.807496,
            42.254012
          ],
          [
            -73.807495,
            42.254014
          ],
          [
            -73.807494,
            42.254015
          ],
          [
            -73.807494,
            42.254017
          ],
          [
            -73.807493,
            42.254019
          ],
          [
            -73.807493,
            42.25402
          ],
          [
            -73.807492,
            42.254022
          ],
          [
            -73.807491,
            42.254024
          ],
          [
            -73.807491,
            42.254025
          ],
          [
            -73.80749,
            42.254027
          ],
          [
            -73.80749,
            42.254029
          ],
          [
            -73.807489,
            42.254031
          ],
          [
            -73.807488,
            42.254032
          ],
          [
            -73.807488,
            42.254034
          ],
          [
            -73.807487,
            42.254036
          ],
          [
            -73.807486,
            42.254037
          ],
          [
            -73.807486,
            42.254039
          ],
          [
            -73.807485,
            42.254041
          ],
          [
            -73.807485,
            42.254042
          ],
          [
            -73.807484,
            42.254044
          ],
          [
            -73.807483,
            42.254046
          ],
          [
            -73.807483,
            42.254047
          ],
          [
            -73.807482,
            42.254049
          ],
          [
            -73.807482,
            42.254051
          ],
          [
            -73.807481,
            42.254053
          ],
          [
            -73.80748,
            42.254054
          ],
          [
            -73.80748,
            42.254056
          ],
          [
            -73.807479,
            42.254058
          ],
          [
            -73.807479,
            42.254059
          ],
          [
            -73.807478,
            42.254061
          ],
          [
            -73.807477,
            42.254063
          ],
          [
            -73.807477,
            42.254064
          ],
          [
            -73.807476,
            42.254066
          ],
          [
            -73.807475,
            42.254068
          ],
          [
            -73.807475,
            42.25407
          ],
          [
            -73.807474,
            42.254071
          ],
          [
            -73.807474,
            42.254073
          ],
          [
            -73.807473,
            42.254075
          ],
          [
            -73.807472,
            42.254076
          ],
          [
            -73.807472,
            42.254078
          ],
          [
            -73.807471,
            42.25408
          ],
          [
            -73.807471,
            42.254081
          ],
          [
            -73.80747,
            42.254083
          ],
          [
            -73.807469,
            42.254085
          ],
          [
            -73.807469,
            42.254087
          ],
          [
            -73.807468,
            42.254088
          ],
          [
            -73.807467,
            42.25409
          ],
          [
            -73.807467,
            42.254092
          ],
          [
            -73.807466,
            42.254093
          ],
          [
            -73.807466,
            42.254095
          ],
          [
            -73.807465,
            42.254097
          ],
          [
            -73.807464,
            42.254098
          ],
          [
            -73.807464,
            42.2541
          ],
          [
            -73.807463,
            42.254102
          ],
          [
            -73.807463,
            42.254103
          ],
          [
            -73.807462,
            42.254105
          ],
          [
            -73.807461,
            42.254107
          ],
          [
            -73.807461,
            42.254109
          ],
          [
            -73.80746,
            42.25411
          ],
          [
            -73.807459,
            42.254112
          ],
          [
            -73.807459,
            42.254114
          ],
          [
            -73.807458,
            42.254115
          ],
          [
            -73.807458,
            42.254117
          ],
          [
            -73.807457,
            42.254119
          ],
          [
            -73.807456,
            42.25412
          ],
          [
            -73.807456,
            42.254122
          ],
          [
            -73.807455,
            42.254124
          ],
          [
            -73.807455,
            42.254126
          ],
          [
            -73.807454,
            42.254127
          ],
          [
            -73.807453,
            42.254129
          ],
          [
            -73.807453,
            42.254131
          ],
          [
            -73.807452,
            42.254132
          ],
          [
            -73.807451,
            42.254134
          ],
          [
            -73.807451,
            42.254136
          ],
          [
            -73.80745,
            42.254137
          ],
          [
            -73.80745,
            42.254139
          ],
          [
            -73.807449,
            42.254141
          ],
          [
            -73.807448,
            42.254142
          ],
          [
            -73.807448,
            42.254144
          ],
          [
            -73.807447,
            42.254146
          ],
          [
            -73.807447,
            42.254148
          ],
          [
            -73.807446,
            42.254149
          ],
          [
            -73.807445,
            42.254151
          ],
          [
            -73.807445,
            42.254153
          ],
          [
            -73.807444,
            42.254154
          ],
          [
            -73.807444,
            42.254156
          ],
          [
            -73.807443,
            42.254158
          ],
          [
            -73.807442,
            42.254159
          ],
          [
            -73.807442,
            42.254161
          ],
          [
            -73.807441,
            42.254163
          ],
          [
            -73.80744,
            42.254165
          ],
          [
            -73.80744,
            42.254166
          ],
          [
            -73.807439,
            42.254168
          ],
          [
            -73.807439,
            42.25417
          ],
          [
            -73.807438,
            42.254171
          ],
          [
            -73.807437,
            42.254173
          ],
          [
            -73.807437,
            42.254175
          ],
          [
            -73.807436,
            42.254176
          ],
          [
            -73.807436,
            42.254178
          ],
          [
            -73.807435,
            42.25418
          ],
          [
            -73.807434,
            42.254181
          ],
          [
            -73.807434,
            42.254183
          ],
          [
            -73.807433,
            42.254185
          ],
          [
            -73.807432,
            42.254187
          ],
          [
            -73.807432,
            42.254188
          ],
          [
            -73.807431,
            42.25419
          ],
          [
            -73.807431,
            42.254192
          ],
          [
            -73.80743,
            42.254193
          ],
          [
            -73.807429,
            42.254195
          ],
          [
            -73.807429,
            42.254197
          ],
          [
            -73.807428,
            42.254198
          ],
          [
            -73.807428,
            42.2542
          ],
          [
            -73.807427,
            42.254202
          ],
          [
            -73.807426,
            42.254204
          ],
          [
            -73.807426,
            42.254205
          ],
          [
            -73.807425,
            42.254207
          ],
          [
            -73.807424,
            42.254209
          ],
          [
            -73.807424,
            42.25421
          ],
          [
            -73.807423,
            42.254212
          ],
          [
            -73.807423,
            42.254214
          ],
          [
            -73.807422,
            42.254215
          ],
          [
            -73.807421,
            42.254217
          ],
          [
            -73.807421,
            42.254219
          ],
          [
            -73.80742,
            42.254221
          ],
          [
            -73.80742,
            42.254222
          ],
          [
            -73.807419,
            42.254224
          ],
          [
            -73.807418,
            42.254226
          ],
          [
            -73.807418,
            42.254227
          ],
          [
            -73.807417,
            42.254229
          ],
          [
            -73.807416,
            42.254231
          ],
          [
            -73.807416,
            42.254232
          ],
          [
            -73.807415,
            42.254234
          ],
          [
            -73.807415,
            42.254236
          ],
          [
            -73.807414,
            42.254237
          ],
          [
            -73.807413,
            42.254239
          ],
          [
            -73.807413,
            42.254241
          ],
          [
            -73.807412,
            42.254243
          ],
          [
            -73.807412,
            42.254244
          ],
          [
            -73.807411,
            42.254246
          ],
          [
            -73.80741,
            42.254248
          ],
          [
            -73.80741,
            42.254249
          ],
          [
            -73.807409,
            42.254251
          ],
          [
            -73.807409,
            42.254253
          ],
          [
            -73.807408,
            42.254254
          ],
          [
            -73.807407,
            42.254256
          ],
          [
            -73.807407,
            42.254258
          ],
          [
            -73.807406,
            42.25426
          ],
          [
            -73.807405,
            42.254261
          ],
          [
            -73.807405,
            42.254263
          ],
          [
            -73.807404,
            42.254265
          ],
          [
            -73.807404,
            42.254266
          ],
          [
            -73.807403,
            42.254268
          ],
          [
            -73.807402,
            42.25427
          ],
          [
            -73.807402,
            42.254271
          ],
          [
            -73.807401,
            42.254273
          ],
          [
            -73.807401,
            42.254275
          ],
          [
            -73.8074,
            42.254276
          ],
          [
            -73.807399,
            42.254278
          ],
          [
            -73.807399,
            42.25428
          ],
          [
            -73.807398,
            42.254282
          ],
          [
            -73.807397,
            42.254283
          ],
          [
            -73.807397,
            42.254285
          ],
          [
            -73.807396,
            42.254287
          ],
          [
            -73.807396,
            42.254288
          ],
          [
            -73.807395,
            42.25429
          ],
          [
            -73.807394,
            42.254292
          ],
          [
            -73.807394,
            42.254293
          ],
          [
            -73.807393,
            42.254295
          ],
          [
            -73.807393,
            42.254297
          ],
          [
            -73.807392,
            42.254299
          ],
          [
            -73.807391,
            42.2543
          ],
          [
            -73.807391,
            42.254302
          ],
          [
            -73.80739,
            42.254304
          ],
          [
            -73.807389,
            42.254305
          ],
          [
            -73.807389,
            42.254307
          ],
          [
            -73.807388,
            42.254309
          ],
          [
            -73.807388,
            42.25431
          ],
          [
            -73.807387,
            42.254312
          ],
          [
            -73.807386,
            42.254314
          ],
          [
            -73.807386,
            42.254316
          ],
          [
            -73.807385,
            42.254317
          ],
          [
            -73.807385,
            42.254319
          ],
          [
            -73.807384,
            42.254321
          ],
          [
            -73.807383,
            42.254322
          ],
          [
            -73.807383,
            42.254324
          ],
          [
            -73.807382,
            42.254326
          ],
          [
            -73.807381,
            42.254327
          ],
          [
            -73.807381,
            42.254329
          ],
          [
            -73.80738,
            42.254331
          ],
          [
            -73.80738,
            42.254332
          ],
          [
            -73.807379,
            42.254334
          ],
          [
            -73.807378,
            42.254336
          ],
          [
            -73.807378,
            42.254338
          ],
          [
            -73.807377,
            42.254339
          ],
          [
            -73.807377,
            42.254341
          ],
          [
            -73.807376,
            42.254343
          ],
          [
            -73.807375,
            42.254344
          ],
          [
            -73.807375,
            42.254346
          ],
          [
            -73.807374,
            42.254348
          ],
          [
            -73.807374,
            42.254349
          ],
          [
            -73.807373,
            42.254351
          ],
          [
            -73.807372,
            42.254353
          ],
          [
            -73.807372,
            42.254355
          ],
          [
            -73.807371,
            42.254356
          ],
          [
            -73.80737,
            42.254358
          ],
          [
            -73.80737,
            42.25436
          ],
          [
            -73.807369,
            42.254361
          ],
          [
            -73.807369,
            42.254363
          ],
          [
            -73.807368,
            42.254365
          ],
          [
            -73.807367,
            42.254366
          ],
          [
            -73.807367,
            42.254368
          ],
          [
            -73.807366,
            42.25437
          ],
          [
            -73.807366,
            42.254371
          ],
          [
            -73.807365,
            42.254373
          ],
          [
            -73.807364,
            42.254375
          ],
          [
            -73.807364,
            42.254377
          ],
          [
            -73.807363,
            42.254378
          ],
          [
            -73.807362,
            42.25438
          ],
          [
            -73.807362,
            42.254382
          ],
          [
            -73.807361,
            42.254383
          ],
          [
            -73.807361,
            42.254385
          ],
          [
            -73.80736,
            42.254387
          ],
          [
            -73.807359,
            42.254388
          ],
          [
            -73.807359,
            42.25439
          ],
          [
            -73.807358,
            42.254392
          ],
          [
            -73.807358,
            42.254394
          ],
          [
            -73.807357,
            42.254395
          ],
          [
            -73.807356,
            42.254397
          ],
          [
            -73.807356,
            42.254399
          ],
          [
            -73.807355,
            42.2544
          ],
          [
            -73.807354,
            42.254402
          ],
          [
            -73.807354,
            42.254404
          ],
          [
            -73.807353,
            42.254405
          ],
          [
            -73.807353,
            42.254407
          ],
          [
            -73.807352,
            42.254409
          ],
          [
            -73.807351,
            42.25441
          ],
          [
            -73.807351,
            42.254412
          ],
          [
            -73.80735,
            42.254414
          ],
          [
            -73.80735,
            42.254416
          ],
          [
            -73.807349,
            42.254417
          ],
          [
            -73.807348,
            42.254419
          ],
          [
            -73.807348,
            42.254421
          ],
          [
            -73.807347,
            42.254422
          ]
        ]
      },
      "properties": {
        "name": "NOAA_Hudson_River_Line04_BenthicBaseline_255kHz.xtf",
        "target_class": "baseline",
        "pings": 250,
        "sonar": "Kongsberg GeoSwath Plus 255 kHz",
        "survey": "NOAA InPort Item 47922"
      }
    }
  ]
}